[{"OBJECT_NAME":"YAOGAN-42 02","OBJECT_ID":"2024-075A","EPOCH":"2026-03-09T17:35:13.119936","MEAN_MOTION":15.23143853,"ECCENTRICITY":0.00051467,"INCLINATION":34.9989,"RA_OF_ASC_NODE":175.0593,"ARG_OF_PERICENTER":346.5324,"MEAN_ANOMALY":13.5253,"EPHEMERIS_TYPE":0,"CLASSIFICATION_TYPE":"U","NORAD_CAT_ID":59557,"ELEMENT_SET_NO":999,"REV_AT_EPOCH":10491,"BSTAR":0.00064504251,"MEAN_MOTION_DOT":0.00015606,"MEAN_MOTION_DDOT":0},{"OBJECT_NAME":"INNOCUBE (TUSAT-31)","OBJECT_ID":"2025-009H","EPOCH":"2026-03-09T17:29:29.528736","MEAN_MOTION":15.24956202,"ECCENTRICITY":0.00051092,"INCLINATION":97.3947,"RA_OF_ASC_NODE":149.8573,"ARG_OF_PERICENTER":335.5214,"MEAN_ANOMALY":24.578,"EPHEMERIS_TYPE":0,"CLASSIFICATION_TYPE":"U","NORAD_CAT_ID":62616,"ELEMENT_SET_NO":999,"REV_AT_EPOCH":6365,"BSTAR":0.00037462408,"MEAN_MOTION_DOT":9.271e-5,"MEAN_MOTION_DDOT":0}]
